{"type": "FeatureCollection", "features": [ {"type": "Feature", "properties": {"norad_id": 29906, "name": "FENGYUN 1C DEB", "group": "fengyun-1c-debris", "lat": 38.88576144434291, "lon": -67.77158143212216, "alt_km": 701.8365261043837, "timestamp": "2025-12-27T07:26:25.493994+00:00", "meta": {"OBJECT_NAME": "FENGYUN 1C DEB", "OBJECT_ID": "1999-025HC", "EPOCH": "2025-12-26T19:12:12.922848", "MEAN_MOTION": 14.49871799, "ECCENTRICITY": 0.0036116, "INCLINATION": 98.7047, "RA_OF_ASC_NODE": 104.6045, "ARG_OF_PERICENTER": 107.7804, "MEAN_ANOMALY": 252.7335, "EPHEMERIS_TYPE": 0, "CLASSIFICATION_TYPE": "U", "NORAD_CAT_ID": 29906, "ELEMENT_SET_NO": 999, "REV_AT_EPOCH": 98361, "BSTAR": 0.0022834594, "MEAN_MOTION_DOT": 8.855e-05, "MEAN_MOTION_DDOT": 0}, "tle": {"line1": "1 29906U 99025HC  25360.80014957  .00008855  00000+0  22835-2 0  9998", "line2": "2 29906  98.7047 104.6045 0036116 107.7804 252.7335 14.49871799983610"}}, "geometry": {"type": "Point", "coordinates": [-67.77158143212216, 38.88576144434291]}}, {"type": "Feature", "properties": {"norad_id": 29907, "name": "FENGYUN 1C DEB", "group": "fengyun-1c-debris", "lat": 80.85648621626616, "lon": -26.24493368666831, "alt_km": 874.8096147189108, "timestamp": "2025-12-27T07:26:25.494004+00:00", "meta": {"OBJECT_NAME": "FENGYUN 1C DEB", "OBJECT_ID": "1999-025HD", "EPOCH": "2025-12-26T23:20:43.864224", "MEAN_MOTION": 14.11715604, "ECCENTRICITY": 0.00849396, "INCLINATION": 99.1107, "RA_OF_ASC_NODE": 67.8668, "ARG_OF_PERICENTER": 210.0046, "MEAN_ANOMALY": 328.3521, "EPHEMERIS_TYPE": 0, "CLASSIFICATION_TYPE": "U", "NORAD_CAT_ID": 29907, "ELEMENT_SET_NO": 999, "REV_AT_EPOCH": 96799, "BSTAR": 0.0015865338, "MEAN_MOTION_DOT": 2.943e-05, "MEAN_MOTION_DDOT": 0}, "tle": {"line1": "1 29907U 99025HD  25360.97272991  .00002943  00000+0  15865-2 0  9998", "line2": "2 29907  99.1107  67.8668 0084939 210.0046 328.3521 14.11715604967997"}}, "geometry": {"type": "Point", "coordinates": [-26.24493368666831, 80.85648621626616]}}, {"type": "Feature", "properties": {"norad_id": 29909, "name": "FENGYUN 1C DEB", "group": "fengyun-1c-debris", "lat": 36.20969042158084, "lon": -68.01579993823711, "alt_km": 732.5815139320803, "timestamp": "2025-12-27T07:26:25.494013+00:00", "meta": {"OBJECT_NAME": "FENGYUN 1C DEB", "OBJECT_ID": "1999-025HF", "EPOCH": "2025-12-26T06:10:44.226048", "MEAN_MOTION": 14.55342823, "ECCENTRICITY": 0.0038203, "INCLINATION": 98.6341, "RA_OF_ASC_NODE": 104.5096, "ARG_OF_PERICENTER": 332.3824, "MEAN_ANOMALY": 59.3588, "EPHEMERIS_TYPE": 0, "CLASSIFICATION_TYPE": "U", "NORAD_CAT_ID": 29909, "ELEMENT_SET_NO": 999, "REV_AT_EPOCH": 98602, "BSTAR": 0.0020345, "MEAN_MOTION_DOT": 8.872e-05, "MEAN_MOTION_DDOT": 0}, "tle": {"line1": "1 29909U 99025HF  25360.25745632  .00008872  00000+0  20345-2 0  9994", "line2": "2 29909  98.6341 104.5096 0038203 332.3824  59.3588 14.55342823986028"}}, "geometry": {"type": "Point", "coordinates": [-68.01579993823711, 36.20969042158084]}}, {"type": "Feature", "properties": {"norad_id": 29911, "name": "FENGYUN 1C DEB", "group": "fengyun-1c-debris", "lat": -4.320183005369986, "lon": -136.49046340724385, "alt_km": 826.9315764743778, "timestamp": "2025-12-27T07:26:25.494024+00:00", "meta": {"OBJECT_NAME": "FENGYUN 1C DEB", "OBJECT_ID": "1999-025HH", "EPOCH": "2025-12-26T21:16:08.322816", "MEAN_MOTION": 14.18896691, "ECCENTRICITY": 0.00274256, "INCLINATION": 98.7142, "RA_OF_ASC_NODE": 43.7569, "ARG_OF_PERICENTER": 111.8029, "MEAN_ANOMALY": 68.533, "EPHEMERIS_TYPE": 0, "CLASSIFICATION_TYPE": "U", "NORAD_CAT_ID": 29911, "ELEMENT_SET_NO": 999, "REV_AT_EPOCH": 97631, "BSTAR": 0.00078714586, "MEAN_MOTION_DOT": 1.602e-05, "MEAN_MOTION_DDOT": 0}, "tle": {"line1": "1 29911U 99025HH  25360.88620744  .00001602  00000+0  78715-3 0  9991", "line2": "2 29911  98.7142  43.7569 0027425 111.8029  68.5330 14.18896691976315"}}, "geometry": {"type": "Point", "coordinates": [-136.49046340724385, -4.320183005369986]}}, {"type": "Feature", "properties": {"norad_id": 29912, "name": "FENGYUN 1C DEB", "group": "fengyun-1c-debris", "lat": -30.006326319664954, "lon": 104.22136058558712, "alt_km": 781.3586079799334, "timestamp": "2025-12-27T07:26:25.494034+00:00", "meta": {"OBJECT_NAME": "FENGYUN 1C DEB", "OBJECT_ID": "1999-025HJ", "EPOCH": "2025-12-26T18:52:44.090688", "MEAN_MOTION": 14.43172072, "ECCENTRICITY": 0.00433354, "INCLINATION": 98.7369, "RA_OF_ASC_NODE": 98.5898, "ARG_OF_PERICENTER": 178.5203, "MEAN_ANOMALY": 313.2595, "EPHEMERIS_TYPE": 0, "CLASSIFICATION_TYPE": "U", "NORAD_CAT_ID": 29912, "ELEMENT_SET_NO": 999, "REV_AT_EPOCH": 98241, "BSTAR": 0.0021463494, "MEAN_MOTION_DOT": 7.255e-05, "MEAN_MOTION_DDOT": 0}, "tle": {"line1": "1 29912U 99025HJ  25360.78662142  .00007255  00000+0  21463-2 0  9996", "line2": "2 29912  98.7369  98.5898 0043335 178.5203 313.2595 14.43172072982411"}}, "geometry": {"type": "Point", "coordinates": [104.22136058558712, -30.006326319664954]}}, {"type": "Feature", "properties": {"norad_id": 29913, "name": "FENGYUN 1C DEB", "group": "fengyun-1c-debris", "lat": 10.071581666217813, "lon": -1.8133608890873085, "alt_km": 904.365402643989, "timestamp": "2025-12-27T07:26:25.494044+00:00", "meta": {"OBJECT_NAME": "FENGYUN 1C DEB", "OBJECT_ID": "1999-025HK", "EPOCH": "2025-12-26T23:07:16.971168", "MEAN_MOTION": 14.07397587, "ECCENTRICITY": 0.00620341, "INCLINATION": 98.7881, "RA_OF_ASC_NODE": 359.424, "ARG_OF_PERICENTER": 230.7755, "MEAN_ANOMALY": 183.8233, "EPHEMERIS_TYPE": 0, "CLASSIFICATION_TYPE": "U", "NORAD_CAT_ID": 29913, "ELEMENT_SET_NO": 999, "REV_AT_EPOCH": 97165, "BSTAR": 0.00030335732, "MEAN_MOTION_DOT": 4.76e-06, "MEAN_MOTION_DDOT": 0}, "tle": {"line1": "1 29913U 99025HK  25360.96339087  .00000476  00000+0  30336-3 0  9994", "line2": "2 29913  98.7881 359.4240 0062034 230.7755 183.8233 14.07397587971655"}}, "geometry": {"type": "Point", "coordinates": [-1.8133608890873085, 10.071581666217813]}}, {"type": "Feature", "properties": {"norad_id": 29914, "name": "FENGYUN 1C DEB", "group": "fengyun-1c-debris", "lat": -70.94569562850766, "lon": 56.261018442998044, "alt_km": 912.8496440505724, "timestamp": "2025-12-27T07:26:25.494055+00:00", "meta": {"OBJECT_NAME": "FENGYUN 1C DEB", "OBJECT_ID": "1999-025HL", "EPOCH": "2025-12-26T15:14:42.516384", "MEAN_MOTION": 14.03132767, "ECCENTRICITY": 0.0036606, "INCLINATION": 98.8421, "RA_OF_ASC_NODE": 28.8184, "ARG_OF_PERICENTER": 77.302, "MEAN_ANOMALY": 43.1644, "EPHEMERIS_TYPE": 0, "CLASSIFICATION_TYPE": "U", "NORAD_CAT_ID": 29914, "ELEMENT_SET_NO": 999, "REV_AT_EPOCH": 96981, "BSTAR": 1.0304e-05, "MEAN_MOTION_DOT": -2.6e-07, "MEAN_MOTION_DDOT": 0}, "tle": {"line1": "1 29914U 99025HL  25360.63521431 -.00000026  00000+0  10304-4 0  9991", "line2": "2 29914  98.8421  28.8184 0036606  77.3020  43.1644 14.03132767969819"}}, "geometry": {"type": "Point", "coordinates": [56.261018442998044, -70.94569562850766]}}, {"type": "Feature", "properties": {"norad_id": 29916, "name": "FENGYUN 1C DEB", "group": "fengyun-1c-debris", "lat": 30.94693405906599, "lon": 14.045510856659059, "alt_km": 1243.3932986081163, "timestamp": "2025-12-27T07:26:25.494065+00:00", "meta": {"OBJECT_NAME": "FENGYUN 1C DEB", "OBJECT_ID": "1999-025HN", "EPOCH": "2025-12-26T14:13:43.872096", "MEAN_MOTION": 13.56999865, "ECCENTRICITY": 0.0271567, "INCLINATION": 99.1936, "RA_OF_ASC_NODE": 18.9471, "ARG_OF_PERICENTER": 223.0588, "MEAN_ANOMALY": 266.3101, "EPHEMERIS_TYPE": 0, "CLASSIFICATION_TYPE": "U", "NORAD_CAT_ID": 29916, "ELEMENT_SET_NO": 999, "REV_AT_EPOCH": 93640, "BSTAR": 0.00061267, "MEAN_MOTION_DOT": 5.11e-06, "MEAN_MOTION_DDOT": 0}, "tle": {"line1": "1 29916U 99025HN  25360.59286889  .00000511  00000+0  61267-3 0  9994", "line2": "2 29916  99.1936  18.9471 0271567 223.0588 266.3101 13.56999865936404"}}, "geometry": {"type": "Point", "coordinates": [14.045510856659059, 30.94693405906599]}}, {"type": "Feature", "properties": {"norad_id": 29917, "name": "FENGYUN 1C DEB", "group": "fengyun-1c-debris", "lat": 71.66592889029742, "lon": 69.97959619261806, "alt_km": 835.864763567839, "timestamp": "2025-12-27T07:26:25.494076+00:00", "meta": {"OBJECT_NAME": "FENGYUN 1C DEB", "OBJECT_ID": "1999-025HP", "EPOCH": "2025-12-26T13:44:25.428192", "MEAN_MOTION": 13.70448992, "ECCENTRICITY": 0.0223624, "INCLINATION": 98.8765, "RA_OF_ASC_NODE": 221.1614, "ARG_OF_PERICENTER": 87.6947, "MEAN_ANOMALY": 340.9028, "EPHEMERIS_TYPE": 0, "CLASSIFICATION_TYPE": "U", "NORAD_CAT_ID": 29917, "ELEMENT_SET_NO": 999, "REV_AT_EPOCH": 94320, "BSTAR": 0.0014288, "MEAN_MOTION_DOT": 1.471e-05, "MEAN_MOTION_DDOT": 0}, "tle": {"line1": "1 29917U 99025HP  25360.57251653  .00001471  00000+0  14288-2 0  9990", "line2": "2 29917  98.8765 221.1614 0223624  87.6947 340.9028 13.70448992943201"}}, "geometry": {"type": "Point", "coordinates": [69.97959619261806, 71.66592889029742]}}, {"type": "Feature", "properties": {"norad_id": 29918, "name": "FENGYUN 1C DEB", "group": "fengyun-1c-debris", "lat": 5.317237122257482, "lon": 83.25078338196859, "alt_km": 782.3783996156653, "timestamp": "2025-12-27T07:26:25.494091+00:00", "meta": {"OBJECT_NAME": "FENGYUN 1C DEB", "OBJECT_ID": "1999-025HQ", "EPOCH": "2025-12-26T20:14:55.895136", "MEAN_MOTION": 14.33707915, "ECCENTRICITY": 0.00137014, "INCLINATION": 98.8531, "RA_OF_ASC_NODE": 83.605, "ARG_OF_PERICENTER": 271.9933, "MEAN_ANOMALY": 207.8998, "EPHEMERIS_TYPE": 0, "CLASSIFICATION_TYPE": "U", "NORAD_CAT_ID": 29918, "ELEMENT_SET_NO": 999, "REV_AT_EPOCH": 97996, "BSTAR": 0.0015519664, "MEAN_MOTION_DOT": 4.268e-05, "MEAN_MOTION_DDOT": 0}, "tle": {"line1": "1 29918U 99025HQ  25360.84370249  .00004268  00000+0  15520-2 0  9991", "line2": "2 29918  98.8531  83.6050 0013701 271.9933 207.8998 14.33707915979966"}}, "geometry": {"type": "Point", "coordinates": [83.25078338196859, 5.317237122257482]}}]}